{
  "type": "FeatureCollection",
  "features": [
    {
      "type": "Feature",
      "properties": {
        "norad_id": 37836,
        "name": "EUTELSAT 16A",
        "group": "eutelsat",
        "lat": -0.04942859111446711,
        "lon": -42.232144575471985,
        "alt_km": 35772.042829050435,
        "timestamp": "2025-12-09T14:52:25.837330+00:00",
        "meta_object_name": "EUTELSAT 16A",
        "meta_object_id": "2011-057A",
        "meta_epoch": "2025-12-09T05:05:20.344128",
        "meta_mean_motion": 1.0027092,
        "meta_eccentricity": 0.00059441,
        "meta_inclination": 0.0583,
        "meta_ra_of_asc_node": 1.22,
        "meta_arg_of_pericenter": 261.0085,
        "meta_mean_anomaly": 268.3126,
        "meta_ephemeris_type": 0,
        "meta_classification_type": "U",
        "meta_norad_cat_id": 37836,
        "meta_element_set_no": 999,
        "meta_rev_at_epoch": 542,
        "meta_bstar": 0,
        "meta_mean_motion_dot": 1.06e-06,
        "meta_mean_motion_ddot": 0,
        "tle_line1": "1 37836U 11057A   25343.21204102  .00000106  00000+0  00000+0 0  9995",
        "tle_line2": "2 37836   0.0583   1.2200 0005944 261.0085 268.3126  1.00270920  5424"
      },
      "geometry": {
        "type": "Point",
        "coordinates": [
          -42.232144575471985,
          -0.04942859111446711
        ]
      }
    },
    {
      "type": "Feature",
      "properties": {
        "norad_id": 38992,
        "name": "EUTELSAT 21B",
        "group": "eutelsat",
        "lat": -0.04529573589071096,
        "lon": -36.6613415857843,
        "alt_km": 35778.60988443825,
        "timestamp": "2025-12-09T14:52:25.837342+00:00",
        "meta_object_name": "EUTELSAT 21B",
        "meta_object_id": "2012-062B",
        "meta_epoch": "2025-12-09T05:06:57.688416",
        "meta_mean_motion": 1.0027092,
        "meta_eccentricity": 0.00032603,
        "meta_inclination": 0.0663,
        "meta_ra_of_asc_node": 358.2239,
        "meta_arg_of_pericenter": 268.9327,
        "meta_mean_anomaly": 269.3874,
        "meta_ephemeris_type": 0,
        "meta_classification_type": "U",
        "meta_norad_cat_id": 38992,
        "meta_element_set_no": 999,
        "meta_rev_at_epoch": 4792,
        "meta_bstar": 0,
        "meta_mean_motion_dot": 1.32e-06,
        "meta_mean_motion_ddot": 0,
        "tle_line1": "1 38992U 12062B   25343.21316769  .00000132  00000+0  00000+0 0  9998",
        "tle_line2": "2 38992   0.0663 358.2239 0003260 268.9327 269.3874  1.00270920 47920"
      },
      "geometry": {
        "type": "Point",
        "coordinates": [
          -36.6613415857843,
          -0.04529573589071096
        ]
      }
    },
    {
      "type": "Feature",
      "properties": {
        "norad_id": 39020,
        "name": "EUTELSAT 70B",
        "group": "eutelsat",
        "lat": 0.04678487060436422,
        "lon": 12.26441992893414,
        "alt_km": 35798.22459711607,
        "timestamp": "2025-12-09T14:52:25.837354+00:00",
        "meta_object_name": "EUTELSAT 70B",
        "meta_object_id": "2012-069A",
        "meta_epoch": "2025-12-09T05:46:38.659008",
        "meta_mean_motion": 1.00270048,
        "meta_eccentricity": 0.0004305,
        "meta_inclination": 0.0647,
        "meta_ra_of_asc_node": 338.0981,
        "meta_arg_of_pericenter": 264.168,
        "meta_mean_anomaly": 353.146,
        "meta_ephemeris_type": 0,
        "meta_classification_type": "U",
        "meta_norad_cat_id": 39020,
        "meta_element_set_no": 999,
        "meta_rev_at_epoch": 4760,
        "meta_bstar": 0,
        "meta_mean_motion_dot": -4.1e-07,
        "meta_mean_motion_ddot": 0,
        "tle_line1": "1 39020U 12069A   25343.24072522 -.00000041  00000+0  00000+0 0  9997",
        "tle_line2": "2 39020   0.0647 338.0981 0004305 264.1680 353.1460  1.00270048 47605"
      },
      "geometry": {
        "type": "Point",
        "coordinates": [
          12.26441992893414,
          0.04678487060436422
        ]
      }
    },
    {
      "type": "Feature",
      "properties": {
        "norad_id": 39122,
        "name": "EUTELSAT 117 WEST A",
        "group": "eutelsat",
        "lat": -0.010560468091205892,
        "lon": -175.12546658112868,
        "alt_km": 35783.11947948223,
        "timestamp": "2025-12-09T14:52:25.837367+00:00",
        "meta_object_name": "EUTELSAT 117 WEST A",
        "meta_object_id": "2013-012A",
        "meta_epoch": "2025-12-09T06:51:25.039008",
        "meta_mean_motion": 1.00270667,
        "meta_eccentricity": 0.00030775,
        "meta_inclination": 0.0125,
        "meta_ra_of_asc_node": 348.7537,
        "meta_arg_of_pericenter": 271.6205,
        "meta_mean_anomaly": 163.9567,
        "meta_ephemeris_type": 0,
        "meta_classification_type": "U",
        "meta_norad_cat_id": 39122,
        "meta_element_set_no": 999,
        "meta_rev_at_epoch": 4652,
        "meta_bstar": 0,
        "meta_mean_motion_dot": -1.1e-07,
        "meta_mean_motion_ddot": 0,
        "tle_line1": "1 39122U 13012A   25343.28570647 -.00000011  00000+0  00000+0 0  9991",
        "tle_line2": "2 39122   0.0125 348.7537 0003077 271.6205 163.9567  1.00270667 46527"
      },
      "geometry": {
        "type": "Point",
        "coordinates": [
          -175.12546658112868,
          -0.010560468091205892
        ]
      }
    },
    {
      "type": "Feature",
      "properties": {
        "norad_id": 39163,
        "name": "EUTELSAT 7B",
        "group": "eutelsat",
        "lat": -0.07613023884609954,
        "lon": -51.30572727907539,
        "alt_km": 35766.996215888765,
        "timestamp": "2025-12-09T14:52:25.837379+00:00",
        "meta_object_name": "EUTELSAT 7B",
        "meta_object_id": "2013-022A",
        "meta_epoch": "2025-12-09T05:02:43.094400",
        "meta_mean_motion": 1.0027156,
        "meta_eccentricity": 0.0004565,
        "meta_inclination": 0.0707,
        "meta_ra_of_asc_node": 13.9889,
        "meta_arg_of_pericenter": 300.4428,
        "meta_mean_anomaly": 206.4393,
        "meta_ephemeris_type": 0,
        "meta_classification_type": "U",
        "meta_norad_cat_id": 39163,
        "meta_element_set_no": 999,
        "meta_rev_at_epoch": 4605,
        "meta_bstar": 0,
        "meta_mean_motion_dot": 5e-07,
        "meta_mean_motion_ddot": 0,
        "tle_line1": "1 39163U 13022A   25343.21022100  .00000050  00000+0  00000+0 0  9998",
        "tle_line2": "2 39163   0.0707  13.9889 0004565 300.4428 206.4393  1.00271560 46051"
      },
      "geometry": {
        "type": "Point",
        "coordinates": [
          -51.30572727907539,
          -0.07613023884609954
        ]
      }
    },
    {
      "type": "Feature",
      "properties": {
        "norad_id": 39612,
        "name": "EXPRESS-AT1",
        "group": "eutelsat",
        "lat": 0.01913904054858941,
        "lon": -2.243257517153226,
        "alt_km": 35777.91025650806,
        "timestamp": "2025-12-09T14:52:25.837392+00:00",
        "meta_object_name": "EXPRESS-AT1",
        "meta_object_id": "2014-010A",
        "meta_epoch": "2025-12-09T03:33:59.092704",
        "meta_mean_motion": 1.00291062,
        "meta_eccentricity": 8.664e-05,
        "meta_inclination": 0.015,
        "meta_ra_of_asc_node": 294.6508,
        "meta_arg_of_pericenter": 21.7051,
        "meta_mean_anomaly": 231.2889,
        "meta_ephemeris_type": 0,
        "meta_classification_type": "U",
        "meta_norad_cat_id": 39612,
        "meta_element_set_no": 999,
        "meta_rev_at_epoch": 4291,
        "meta_bstar": 0,
        "meta_mean_motion_dot": 7.8e-07,
        "meta_mean_motion_ddot": 0,
        "tle_line1": "1 39612U 14010A   25343.14860061  .00000078  00000+0  00000+0 0  9993",
        "tle_line2": "2 39612   0.0150 294.6508 0000866  21.7051 231.2889  1.00291062 42919"
      },
      "geometry": {
        "type": "Point",
        "coordinates": [
          -2.243257517153226,
          0.01913904054858941
        ]
      }
    },
    {
      "type": "Feature",
      "properties": {
        "norad_id": 39613,
        "name": "EXPRESS-AT2",
        "group": "eutelsat",
        "lat": 0.031440790206477394,
        "lon": 81.58463471059649,
        "alt_km": 35792.01342555773,
        "timestamp": "2025-12-09T14:52:25.837404+00:00",
        "meta_object_name": "EXPRESS-AT2",
        "meta_object_id": "2014-010B",
        "meta_epoch": "2025-12-09T05:40:39.461376",
        "meta_mean_motion": 1.00272459,
        "meta_eccentricity": 0.00015597,
        "meta_inclination": 0.0184,
        "meta_ra_of_asc_node": 312.6688,
        "meta_arg_of_pericenter": 331.8127,
        "meta_mean_anomaly": 18.7778,
        "meta_ephemeris_type": 0,
        "meta_classification_type": "U",
        "meta_norad_cat_id": 39613,
        "meta_element_set_no": 999,
        "meta_rev_at_epoch": 4259,
        "meta_bstar": 0,
        "meta_mean_motion_dot": -2.79e-06,
        "meta_mean_motion_ddot": 0,
        "tle_line1": "1 39613U 14010B   25343.23656784 -.00000279  00000+0  00000+0 0  9993",
        "tle_line2": "2 39613   0.0184 312.6688 0001559 331.8127  18.7778  1.00272459 42594"
      },
      "geometry": {
        "type": "Point",
        "coordinates": [
          81.58463471059649,
          0.031440790206477394
        ]
      }
    }
  ]
}